STARLINK-36096          
1 66949U 25286AA  26003.91668981  .00041334  00000+0  10396-2 0  9991
2 66949  53.1592 301.8363 0001183  80.8422 296.7971 15.39565603  5551
STARLINK-36111          
1 66950U 25286AB  26003.63597744  .01585702  00000+0  25618-1 0  9995
2 66950  53.1587 302.9612 0010023 126.7399 233.4532 15.49315587  5424
STARLINK-35999          
1 66951U 25286AC  26003.05471001  .00068030  00000+0  12193-2 0  9993
2 66951  53.1594 305.7328 0001161 110.9652 249.1481 15.49340524  5334
STARLINK-36122          
1 66952U 25286AD  26003.82880893  .00173433  00000+0  29648-2 0  9999
2 66952  53.1598 302.0319 0003005 188.8328 171.2629 15.50182535  5452
HULIANWANG DIGUI-114    
1 66953U 25287A   25362.37786440  .00000040  00000+0  30534-4 0  9992
2 66953  86.4952 340.4811 0001731  85.2347 274.9006 13.62060403  2664
HULIANWANG DIGUI-115    
1 66954U 25287B   25362.30127108  .00000040  00000+0  30553-4 0  9997
2 66954  86.4760 340.5489 0003893  64.9296 295.2263 13.61926978  2659
HULIANWANG DIGUI-116    
1 66955U 25287C   25362.29720234  .00000185  00000+0  21733-3 0  9994
2 66955  86.4968 340.4874 0002763  86.1288 274.0183 13.62405302  2659
HULIANWANG DIGUI-117    
1 66956U 25287D   25358.91908891  .00000024  00000+0  90260-5 0  9991
2 66956  86.4976 341.7257 0001044 103.5815 256.5458 13.64670553  2192
HULIANWANG DIGUI-118    
1 66957U 25287E   25362.51058519  .00000182  00000+0  21280-3 0  9995
2 66957  86.4946 340.4177 0001409  89.7446 270.3872 13.62673219  2685
CZ-6A R/B               
1 66958U 25287F   26003.93989417  .00000153  00000+0  95982-4 0  9994
2 66958  86.5074 337.6617 0106464  35.3067 325.5097 13.94924020  3631
STARLINK-35887          
1 66959U 25288A   26003.91668981  .00062936  00000+0  15045-2 0  9991
2 66959  43.0013  34.5312 0001576 267.5902 335.2819 15.40638563  5395
STARLINK-35879          
1 66960U 25288B   26003.91668981 -.02038131  00000+0 -44829-1 0  9998
2 66960  43.0005  34.1424 0001317 268.6169 134.2779 15.46633370  5397
